[{"OBJECT_NAME":"ONEWEB-0657","OBJECT_ID":"2023-029Y","EPOCH":"2025-11-05T04:27:49.512672","MEAN_MOTION":13.19723446,"ECCENTRICITY":0.00019504,"INCLINATION":87.9226,"RA_OF_ASC_NODE":349.5575,"ARG_OF_PERICENTER":73.3695,"MEAN_ANOMALY":286.7651,"EPHEMERIS_TYPE":0,"CLASSIFICATION_TYPE":"U","NORAD_CAT_ID":55818,"ELEMENT_SET_NO":999,"REV_AT_EPOCH":12936,"BSTAR":-7.437152e-5,"MEAN_MOTION_DOT":-1.7e-7,"MEAN_MOTION_DDOT":0},{"OBJECT_NAME":"ONEWEB-0658","OBJECT_ID":"2023-029Z","EPOCH":"2025-11-05T04:21:00.114912","MEAN_MOTION":13.19730685,"ECCENTRICITY":0.00026585,"INCLINATION":87.9244,"RA_OF_ASC_NODE":349.5052,"ARG_OF_PERICENTER":96.4279,"MEAN_ANOMALY":263.7157,"EPHEMERIS_TYPE":0,"CLASSIFICATION_TYPE":"U","NORAD_CAT_ID":55819,"ELEMENT_SET_NO":999,"REV_AT_EPOCH":12937,"BSTAR":-0.0019506345,"MEAN_MOTION_DOT":-7.68e-6,"MEAN_MOTION_DDOT":0},{"OBJECT_NAME":"ONEWEB-0660","OBJECT_ID":"2023-029AA","EPOCH":"2025-11-05T02:41:17.105856","MEAN_MOTION":13.14502382,"ECCENTRICITY":0.00018932,"INCLINATION":87.9012,"RA_OF_ASC_NODE":334.3314,"ARG_OF_PERICENTER":104.8123,"MEAN_ANOMALY":255.3217,"EPHEMERIS_TYPE":0,"CLASSIFICATION_TYPE":"U","NORAD_CAT_ID":55820,"ELEMENT_SET_NO":999,"REV_AT_EPOCH":12996,"BSTAR":-0.0012594949,"MEAN_MOTION_DOT":-4.54e-6,"MEAN_MOTION_DDOT":0},{"OBJECT_NAME":"ONEWEB-0661","OBJECT_ID":"2023-029AB","EPOCH":"2025-11-05T07:10:46.278336","MEAN_MOTION":13.14501806,"ECCENTRICITY":0.00018067,"INCLINATION":87.9,"RA_OF_ASC_NODE":334.3631,"ARG_OF_PERICENTER":106.0023,"MEAN_ANOMALY":254.1306,"EPHEMERIS_TYPE":0,"CLASSIFICATION_TYPE":"U","NORAD_CAT_ID":55821,"ELEMENT_SET_NO":999,"REV_AT_EPOCH":12997,"BSTAR":0.00076985514,"MEAN_MOTION_DOT":2.98e-6,"MEAN_MOTION_DDOT":0},{"OBJECT_NAME":"ONEWEB-0662","OBJECT_ID":"2023-029AC","EPOCH":"2025-11-05T02:32:10.302720","MEAN_MOTION":13.14501652,"ECCENTRICITY":0.00019659,"INCLINATION":87.9005,"RA_OF_ASC_NODE":334.4072,"ARG_OF_PERICENTER":104.0246,"MEAN_ANOMALY":256.1103,"EPHEMERIS_TYPE":0,"CLASSIFICATION_TYPE":"U","NORAD_CAT_ID":55822,"ELEMENT_SET_NO":999,"REV_AT_EPOCH":12999,"BSTAR":-0.0003730943,"MEAN_MOTION_DOT":-1.26e-6,"MEAN_MOTION_DDOT":0},{"OBJECT_NAME":"ONEWEB-0663","OBJECT_ID":"2023-029AD","EPOCH":"2025-11-05T02:07:54.136128","MEAN_MOTION":13.20849716,"ECCENTRICITY":0.00020857,"INCLINATION":87.92,"RA_OF_ASC_NODE":319.1828,"ARG_OF_PERICENTER":102.4165,"MEAN_ANOMALY":257.7202,"EPHEMERIS_TYPE":0,"CLASSIFICATION_TYPE":"U","NORAD_CAT_ID":55823,"ELEMENT_SET_NO":999,"REV_AT_EPOCH":13156,"BSTAR":-0.00018252084,"MEAN_MOTION_DOT":-6.1e-7,"MEAN_MOTION_DDOT":0},{"OBJECT_NAME":"ONEWEB-0664","OBJECT_ID":"2023-029AE","EPOCH":"2025-11-05T02:28:09.247584","MEAN_MOTION":13.20770687,"ECCENTRICITY":0.00015261,"INCLINATION":87.9184,"RA_OF_ASC_NODE":319.1914,"ARG_OF_PERICENTER":96.9608,"MEAN_ANOMALY":263.1699,"EPHEMERIS_TYPE":0,"CLASSIFICATION_TYPE":"U","NORAD_CAT_ID":55824,"ELEMENT_SET_NO":999,"REV_AT_EPOCH":13156,"BSTAR":-0.00041781882,"MEAN_MOTION_DOT":-1.57e-6,"MEAN_MOTION_DDOT":0},{"OBJECT_NAME":"ONEWEB-0665","OBJECT_ID":"2023-029AF","EPOCH":"2025-11-05T03:26:59.115264","MEAN_MOTION":13.14501907,"ECCENTRICITY":0.00020122,"INCLINATION":87.9005,"RA_OF_ASC_NODE":334.3707,"ARG_OF_PERICENTER":102.779,"MEAN_ANOMALY":257.3565,"EPHEMERIS_TYPE":0,"CLASSIFICATION_TYPE":"U","NORAD_CAT_ID":55825,"ELEMENT_SET_NO":999,"REV_AT_EPOCH":12997,"BSTAR":0.00075669408,"MEAN_MOTION_DOT":2.93e-6,"MEAN_MOTION_DDOT":0},{"OBJECT_NAME":"ONEWEB-0666","OBJECT_ID":"2023-029AG","EPOCH":"2025-11-05T02:19:03.307584","MEAN_MOTION":13.20771614,"ECCENTRICITY":0.00019304,"INCLINATION":87.9187,"RA_OF_ASC_NODE":319.1814,"ARG_OF_PERICENTER":70.1405,"MEAN_ANOMALY":289.9936,"EPHEMERIS_TYPE":0,"CLASSIFICATION_TYPE":"U","NORAD_CAT_ID":55826,"ELEMENT_SET_NO":999,"REV_AT_EPOCH":13157,"BSTAR":-0.00022335862,"MEAN_MOTION_DOT":-7.8e-7,"MEAN_MOTION_DDOT":0},{"OBJECT_NAME":"ONEWEB-0667","OBJECT_ID":"2023-029AH","EPOCH":"2025-11-05T02:09:56.605536","MEAN_MOTION":13.20770772,"ECCENTRICITY":0.00018323,"INCLINATION":87.9192,"RA_OF_ASC_NODE":319.1127,"ARG_OF_PERICENTER":98.3181,"MEAN_ANOMALY":261.8161,"EPHEMERIS_TYPE":0,"CLASSIFICATION_TYPE":"U","NORAD_CAT_ID":55827,"ELEMENT_SET_NO":999,"REV_AT_EPOCH":13156,"BSTAR":-1.8777096e-5,"MEAN_MOTION_DOT":5.0e-8,"MEAN_MOTION_DDOT":0},{"OBJECT_NAME":"ONEWEB-0669","OBJECT_ID":"2023-029AJ","EPOCH":"2025-11-05T02:03:08.664480","MEAN_MOTION":13.2077305,"ECCENTRICITY":0.00011881,"INCLINATION":87.918,"RA_OF_ASC_NODE":319.1513,"ARG_OF_PERICENTER":83.9817,"MEAN_ANOMALY":276.1451,"EPHEMERIS_TYPE":0,"CLASSIFICATION_TYPE":"U","NORAD_CAT_ID":55828,"ELEMENT_SET_NO":999,"REV_AT_EPOCH":13156,"BSTAR":-4.9289689e-5,"MEAN_MOTION_DOT":-7.0e-8,"MEAN_MOTION_DDOT":0},{"OBJECT_NAME":"ONEWEB-0670","OBJECT_ID":"2023-029AK","EPOCH":"2025-11-05T02:55:00.001920","MEAN_MOTION":13.14504158,"ECCENTRICITY":0.00016878,"INCLINATION":87.9005,"RA_OF_ASC_NODE":334.3949,"ARG_OF_PERICENTER":106.5504,"MEAN_ANOMALY":253.5811,"EPHEMERIS_TYPE":0,"CLASSIFICATION_TYPE":"U","NORAD_CAT_ID":55829,"ELEMENT_SET_NO":999,"REV_AT_EPOCH":12999,"BSTAR":0.000120385,"MEAN_MOTION_DOT":5.7e-7,"MEAN_MOTION_DDOT":0},{"OBJECT_NAME":"ONEWEB-0671","OBJECT_ID":"2023-029AL","EPOCH":"2025-11-05T04:14:10.805280","MEAN_MOTION":13.19726738,"ECCENTRICITY":0.00019379,"INCLINATION":87.9231,"RA_OF_ASC_NODE":349.5536,"ARG_OF_PERICENTER":103.0958,"MEAN_ANOMALY":257.0391,"EPHEMERIS_TYPE":0,"CLASSIFICATION_TYPE":"U","NORAD_CAT_ID":55830,"ELEMENT_SET_NO":999,"REV_AT_EPOCH":12935,"BSTAR":-1.2137107e-5,"MEAN_MOTION_DOT":8.0e-8,"MEAN_MOTION_DDOT":0},{"OBJECT_NAME":"ONEWEB-0672","OBJECT_ID":"2023-029AM","EPOCH":"2025-11-05T03:45:25.854336","MEAN_MOTION":13.20772026,"ECCENTRICITY":0.00017589,"INCLINATION":87.9181,"RA_OF_ASC_NODE":319.1178,"ARG_OF_PERICENTER":82.9372,"MEAN_ANOMALY":277.1961,"EPHEMERIS_TYPE":0,"CLASSIFICATION_TYPE":"U","NORAD_CAT_ID":55831,"ELEMENT_SET_NO":999,"REV_AT_EPOCH":13157,"BSTAR":0.00013343071,"MEAN_MOTION_DOT":6.7e-7,"MEAN_MOTION_DDOT":0},{"OBJECT_NAME":"ONEWEB-0673","OBJECT_ID":"2023-029AN","EPOCH":"2025-11-05T03:40:04.262304","MEAN_MOTION":13.19725903,"ECCENTRICITY":0.00020138,"INCLINATION":87.9244,"RA_OF_ASC_NODE":349.5323,"ARG_OF_PERICENTER":98.1993,"MEAN_ANOMALY":261.9368,"EPHEMERIS_TYPE":0,"CLASSIFICATION_TYPE":"U","NORAD_CAT_ID":55832,"ELEMENT_SET_NO":999,"REV_AT_EPOCH":12935,"BSTAR":0.00023124451,"MEAN_MOTION_DOT":1.06e-6,"MEAN_MOTION_DDOT":0},{"OBJECT_NAME":"ONEWEB-0674","OBJECT_ID":"2023-029AP","EPOCH":"2025-11-05T02:09:19.230624","MEAN_MOTION":13.14500799,"ECCENTRICITY":0.00016243,"INCLINATION":87.8999,"RA_OF_ASC_NODE":334.3813,"ARG_OF_PERICENTER":108.6343,"MEAN_ANOMALY":251.4964,"EPHEMERIS_TYPE":0,"CLASSIFICATION_TYPE":"U","NORAD_CAT_ID":55833,"ELEMENT_SET_NO":999,"REV_AT_EPOCH":12997,"BSTAR":-0.00023804641,"MEAN_MOTION_DOT":-7.5e-7,"MEAN_MOTION_DDOT":0}]
