ONEWEB-0657             
1 55818U 23029Y   25309.18598973 -.00000017  00000+0 -74372-4 0  9998
2 55818  87.9226 349.5575 0001950  73.3695 286.7651 13.19723446129365
ONEWEB-0658             
1 55819U 23029Z   25309.18125133 -.00000768  00000+0 -19506-2 0  9992
2 55819  87.9244 349.5052 0002658  96.4279 263.7157 13.19730685129376
ONEWEB-0660             
1 55820U 23029AA  25309.11200354 -.00000454  00000+0 -12595-2 0  9999
2 55820  87.9012 334.3314 0001893 104.8123 255.3217 13.14502382129961
ONEWEB-0661             
1 55821U 23029AB  25309.29914674  .00000298  00000+0  76986-3 0  9995
2 55821  87.9000 334.3631 0001806 106.0023 254.1306 13.14501806129975
ONEWEB-0662             
1 55822U 23029AC  25309.10567480 -.00000126  00000+0 -37309-3 0  9993
2 55822  87.9005 334.4072 0001965 104.0246 256.1103 13.14501652129990
ONEWEB-0663             
1 55823U 23029AD  25309.08882102 -.00000061  00000+0 -18252-3 0  9996
2 55823  87.9200 319.1828 0002085 102.4165 257.7202 13.20849716131569
ONEWEB-0664             
1 55824U 23029AE  25309.10288481 -.00000157  00000+0 -41782-3 0  9990
2 55824  87.9184 319.1914 0001526  96.9608 263.1699 13.20770687131566
ONEWEB-0665             
1 55825U 23029AF  25309.14373976  .00000293  00000+0  75669-3 0  9999
2 55825  87.9005 334.3707 0002012 102.7790 257.3565 13.14501907129976
ONEWEB-0666             
1 55826U 23029AG  25309.09656606 -.00000078  00000+0 -22336-3 0  9994
2 55826  87.9187 319.1814 0001930  70.1405 289.9936 13.20771614131570
ONEWEB-0667             
1 55827U 23029AH  25309.09023849  .00000005  00000+0 -18777-4 0  9996
2 55827  87.9192 319.1127 0001832  98.3181 261.8161 13.20770772131560
ONEWEB-0669             
1 55828U 23029AJ  25309.08551695 -.00000007  00000+0 -49290-4 0  9998
2 55828  87.9180 319.1513 0001188  83.9817 276.1451 13.20773050131560
ONEWEB-0670             
1 55829U 23029AK  25309.12152780  .00000057  00000+0  12039-3 0  9999
2 55829  87.9005 334.3949 0001687 106.5504 253.5811 13.14504158129995
ONEWEB-0671             
1 55830U 23029AL  25309.17651395  .00000008  00000+0 -12137-4 0  9999
2 55830  87.9231 349.5536 0001937 103.0958 257.0391 13.19726738129358
ONEWEB-0672             
1 55831U 23029AM  25309.15654924  .00000067  00000+0  13343-3 0  9992
2 55831  87.9181 319.1178 0001758  82.9372 277.1961 13.20772026131570
ONEWEB-0673             
1 55832U 23029AN  25309.15282711  .00000106  00000+0  23124-3 0  9996
2 55832  87.9244 349.5323 0002013  98.1993 261.9368 13.19725903129358
ONEWEB-0674             
1 55833U 23029AP  25309.08980591 -.00000075  00000+0 -23805-3 0  9993
2 55833  87.8999 334.3813 0001624 108.6343 251.4964 13.14500799129977
